ONEWEB-0320             
1 49190U 21083E   25297.78012966 -.00000028  00000+0 -10313-3 0  9993
2 49190  87.9235  22.2209 0001798 101.1461 258.9873 13.18686197198959
ONEWEB-0321             
1 49191U 21083F   25297.97610370 -.00000032  00000+0 -11013-3 0  9991
2 49191  87.9204 321.3426 0002113  99.7055 260.4317 13.20770722205785
ONEWEB-0322             
1 49192U 21083G   25297.61426949 -.00000236  00000+0 -68209-3 0  9995
2 49192  87.9028   7.0748 0002106 113.7109 246.4241 13.13472116199997
ONEWEB-0324             
1 49193U 21083H   25297.76687551  .00000010  00000+0 -64037-5 0  9996
2 49193  87.9226  22.2018 0001951  97.3295 262.8059 13.18684855198973
ONEWEB-0325             
1 49194U 21083J   25297.77017973 -.00000006  00000+0 -47817-4 0  9995
2 49194  87.9229  22.2193 0001815 105.0657 255.0676 13.18685907198988
ONEWEB-0326             
1 49195U 21083K   25297.78514993 -.00000029  00000+0 -10538-3 0  9995
2 49195  87.9230  22.2043 0001513  95.3566 264.7739 13.18684659198979
ONEWEB-0327             
1 49196U 21083L   25297.78488715 -.00000024  00000+0 -94703-4 0  9990
2 49196  87.9221  22.2277 0001438  98.7584 261.3711 13.18685793198997
ONEWEB-0328             
1 49197U 21083M   25297.75646567 -.00000253  00000+0 -72851-3 0  9992
2 49197  87.9042   6.9879 0001913  96.5786 263.5561 13.13468010199998
