<?xml version="1.0" encoding="UTF-8"?>
<ndm xmlns:xsi="http://www.w3.org/2001/XMLSchema-instance" xsi:noNamespaceSchemaLocation="https://sanaregistry.org/r/ndmxml_unqualified/ndmxml-2.0.0-master-2.0.xsd">
<omm id="CCSDS_OMM_VERS" version="2.0">
<header><CREATION_DATE/><ORIGINATOR/></header><body><segment><metadata><OBJECT_NAME>ONEWEB-0320</OBJECT_NAME><OBJECT_ID>2021-083E</OBJECT_ID><CENTER_NAME>EARTH</CENTER_NAME><REF_FRAME>TEME</REF_FRAME><TIME_SYSTEM>UTC</TIME_SYSTEM><MEAN_ELEMENT_THEORY>SGP4</MEAN_ELEMENT_THEORY></metadata><data><meanElements><EPOCH>2025-10-24T18:43:23.202624</EPOCH><MEAN_MOTION>13.18686197</MEAN_MOTION><ECCENTRICITY>.00017987</ECCENTRICITY><INCLINATION>87.9235</INCLINATION><RA_OF_ASC_NODE>22.2209</RA_OF_ASC_NODE><ARG_OF_PERICENTER>101.1461</ARG_OF_PERICENTER><MEAN_ANOMALY>258.9873</MEAN_ANOMALY></meanElements><tleParameters><EPHEMERIS_TYPE>0</EPHEMERIS_TYPE><CLASSIFICATION_TYPE>U</CLASSIFICATION_TYPE><NORAD_CAT_ID>49190</NORAD_CAT_ID><ELEMENT_SET_NO>999</ELEMENT_SET_NO><REV_AT_EPOCH>19895</REV_AT_EPOCH><BSTAR>-.10313226E-3</BSTAR><MEAN_MOTION_DOT>-.28E-6</MEAN_MOTION_DOT><MEAN_MOTION_DDOT>0</MEAN_MOTION_DDOT></tleParameters></data></segment></body></omm>
<omm id="CCSDS_OMM_VERS" version="2.0">
<header><CREATION_DATE/><ORIGINATOR/></header><body><segment><metadata><OBJECT_NAME>ONEWEB-0321</OBJECT_NAME><OBJECT_ID>2021-083F</OBJECT_ID><CENTER_NAME>EARTH</CENTER_NAME><REF_FRAME>TEME</REF_FRAME><TIME_SYSTEM>UTC</TIME_SYSTEM><MEAN_ELEMENT_THEORY>SGP4</MEAN_ELEMENT_THEORY></metadata><data><meanElements><EPOCH>2025-10-24T23:25:35.359680</EPOCH><MEAN_MOTION>13.20770722</MEAN_MOTION><ECCENTRICITY>.00021137</ECCENTRICITY><INCLINATION>87.9204</INCLINATION><RA_OF_ASC_NODE>321.3426</RA_OF_ASC_NODE><ARG_OF_PERICENTER>99.7055</ARG_OF_PERICENTER><MEAN_ANOMALY>260.4317</MEAN_ANOMALY></meanElements><tleParameters><EPHEMERIS_TYPE>0</EPHEMERIS_TYPE><CLASSIFICATION_TYPE>U</CLASSIFICATION_TYPE><NORAD_CAT_ID>49191</NORAD_CAT_ID><ELEMENT_SET_NO>999</ELEMENT_SET_NO><REV_AT_EPOCH>20578</REV_AT_EPOCH><BSTAR>-.11012928E-3</BSTAR><MEAN_MOTION_DOT>-.32E-6</MEAN_MOTION_DOT><MEAN_MOTION_DDOT>0</MEAN_MOTION_DDOT></tleParameters></data></segment></body></omm>
<omm id="CCSDS_OMM_VERS" version="2.0">
<header><CREATION_DATE/><ORIGINATOR/></header><body><segment><metadata><OBJECT_NAME>ONEWEB-0322</OBJECT_NAME><OBJECT_ID>2021-083G</OBJECT_ID><CENTER_NAME>EARTH</CENTER_NAME><REF_FRAME>TEME</REF_FRAME><TIME_SYSTEM>UTC</TIME_SYSTEM><MEAN_ELEMENT_THEORY>SGP4</MEAN_ELEMENT_THEORY></metadata><data><meanElements><EPOCH>2025-10-24T14:44:32.883936</EPOCH><MEAN_MOTION>13.13472116</MEAN_MOTION><ECCENTRICITY>.00021067</ECCENTRICITY><INCLINATION>87.9028</INCLINATION><RA_OF_ASC_NODE>7.0748</RA_OF_ASC_NODE><ARG_OF_PERICENTER>113.7109</ARG_OF_PERICENTER><MEAN_ANOMALY>246.4241</MEAN_ANOMALY></meanElements><tleParameters><EPHEMERIS_TYPE>0</EPHEMERIS_TYPE><CLASSIFICATION_TYPE>U</CLASSIFICATION_TYPE><NORAD_CAT_ID>49192</NORAD_CAT_ID><ELEMENT_SET_NO>999</ELEMENT_SET_NO><REV_AT_EPOCH>19999</REV_AT_EPOCH><BSTAR>-.68209175E-3</BSTAR><MEAN_MOTION_DOT>-.236E-5</MEAN_MOTION_DOT><MEAN_MOTION_DDOT>0</MEAN_MOTION_DDOT></tleParameters></data></segment></body></omm>
<omm id="CCSDS_OMM_VERS" version="2.0">
<header><CREATION_DATE/><ORIGINATOR/></header><body><segment><metadata><OBJECT_NAME>ONEWEB-0324</OBJECT_NAME><OBJECT_ID>2021-083H</OBJECT_ID><CENTER_NAME>EARTH</CENTER_NAME><REF_FRAME>TEME</REF_FRAME><TIME_SYSTEM>UTC</TIME_SYSTEM><MEAN_ELEMENT_THEORY>SGP4</MEAN_ELEMENT_THEORY></metadata><data><meanElements><EPOCH>2025-10-24T18:24:18.044064</EPOCH><MEAN_MOTION>13.18684855</MEAN_MOTION><ECCENTRICITY>.00019514</ECCENTRICITY><INCLINATION>87.9226</INCLINATION><RA_OF_ASC_NODE>22.2018</RA_OF_ASC_NODE><ARG_OF_PERICENTER>97.3295</ARG_OF_PERICENTER><MEAN_ANOMALY>262.8059</MEAN_ANOMALY></meanElements><tleParameters><EPHEMERIS_TYPE>0</EPHEMERIS_TYPE><CLASSIFICATION_TYPE>U</CLASSIFICATION_TYPE><NORAD_CAT_ID>49193</NORAD_CAT_ID><ELEMENT_SET_NO>999</ELEMENT_SET_NO><REV_AT_EPOCH>19897</REV_AT_EPOCH><BSTAR>-.6403705E-5</BSTAR><MEAN_MOTION_DOT>.1E-6</MEAN_MOTION_DOT><MEAN_MOTION_DDOT>0</MEAN_MOTION_DDOT></tleParameters></data></segment></body></omm>
<omm id="CCSDS_OMM_VERS" version="2.0">
<header><CREATION_DATE/><ORIGINATOR/></header><body><segment><metadata><OBJECT_NAME>ONEWEB-0325</OBJECT_NAME><OBJECT_ID>2021-083J</OBJECT_ID><CENTER_NAME>EARTH</CENTER_NAME><REF_FRAME>TEME</REF_FRAME><TIME_SYSTEM>UTC</TIME_SYSTEM><MEAN_ELEMENT_THEORY>SGP4</MEAN_ELEMENT_THEORY></metadata><data><meanElements><EPOCH>2025-10-24T18:29:03.528672</EPOCH><MEAN_MOTION>13.18685907</MEAN_MOTION><ECCENTRICITY>.00018159</ECCENTRICITY><INCLINATION>87.9229</INCLINATION><RA_OF_ASC_NODE>22.2193</RA_OF_ASC_NODE><ARG_OF_PERICENTER>105.0657</ARG_OF_PERICENTER><MEAN_ANOMALY>255.0676</MEAN_ANOMALY></meanElements><tleParameters><EPHEMERIS_TYPE>0</EPHEMERIS_TYPE><CLASSIFICATION_TYPE>U</CLASSIFICATION_TYPE><NORAD_CAT_ID>49194</NORAD_CAT_ID><ELEMENT_SET_NO>999</ELEMENT_SET_NO><REV_AT_EPOCH>19898</REV_AT_EPOCH><BSTAR>-.47817146E-4</BSTAR><MEAN_MOTION_DOT>-.6E-7</MEAN_MOTION_DOT><MEAN_MOTION_DDOT>0</MEAN_MOTION_DDOT></tleParameters></data></segment></body></omm>
<omm id="CCSDS_OMM_VERS" version="2.0">
<header><CREATION_DATE/><ORIGINATOR/></header><body><segment><metadata><OBJECT_NAME>ONEWEB-0326</OBJECT_NAME><OBJECT_ID>2021-083K</OBJECT_ID><CENTER_NAME>EARTH</CENTER_NAME><REF_FRAME>TEME</REF_FRAME><TIME_SYSTEM>UTC</TIME_SYSTEM><MEAN_ELEMENT_THEORY>SGP4</MEAN_ELEMENT_THEORY></metadata><data><meanElements><EPOCH>2025-10-24T18:50:36.953952</EPOCH><MEAN_MOTION>13.18684659</MEAN_MOTION><ECCENTRICITY>.00015137</ECCENTRICITY><INCLINATION>87.9230</INCLINATION><RA_OF_ASC_NODE>22.2043</RA_OF_ASC_NODE><ARG_OF_PERICENTER>95.3566</ARG_OF_PERICENTER><MEAN_ANOMALY>264.7739</MEAN_ANOMALY></meanElements><tleParameters><EPHEMERIS_TYPE>0</EPHEMERIS_TYPE><CLASSIFICATION_TYPE>U</CLASSIFICATION_TYPE><NORAD_CAT_ID>49195</NORAD_CAT_ID><ELEMENT_SET_NO>999</ELEMENT_SET_NO><REV_AT_EPOCH>19897</REV_AT_EPOCH><BSTAR>-.1053751E-3</BSTAR><MEAN_MOTION_DOT>-.29E-6</MEAN_MOTION_DOT><MEAN_MOTION_DDOT>0</MEAN_MOTION_DDOT></tleParameters></data></segment></body></omm>
<omm id="CCSDS_OMM_VERS" version="2.0">
<header><CREATION_DATE/><ORIGINATOR/></header><body><segment><metadata><OBJECT_NAME>ONEWEB-0327</OBJECT_NAME><OBJECT_ID>2021-083L</OBJECT_ID><CENTER_NAME>EARTH</CENTER_NAME><REF_FRAME>TEME</REF_FRAME><TIME_SYSTEM>UTC</TIME_SYSTEM><MEAN_ELEMENT_THEORY>SGP4</MEAN_ELEMENT_THEORY></metadata><data><meanElements><EPOCH>2025-10-24T18:50:14.249760</EPOCH><MEAN_MOTION>13.18685793</MEAN_MOTION><ECCENTRICITY>.00014383</ECCENTRICITY><INCLINATION>87.9221</INCLINATION><RA_OF_ASC_NODE>22.2277</RA_OF_ASC_NODE><ARG_OF_PERICENTER>98.7584</ARG_OF_PERICENTER><MEAN_ANOMALY>261.3711</MEAN_ANOMALY></meanElements><tleParameters><EPHEMERIS_TYPE>0</EPHEMERIS_TYPE><CLASSIFICATION_TYPE>U</CLASSIFICATION_TYPE><NORAD_CAT_ID>49196</NORAD_CAT_ID><ELEMENT_SET_NO>999</ELEMENT_SET_NO><REV_AT_EPOCH>19899</REV_AT_EPOCH><BSTAR>-.94702726E-4</BSTAR><MEAN_MOTION_DOT>-.24E-6</MEAN_MOTION_DOT><MEAN_MOTION_DDOT>0</MEAN_MOTION_DDOT></tleParameters></data></segment></body></omm>
<omm id="CCSDS_OMM_VERS" version="2.0">
<header><CREATION_DATE/><ORIGINATOR/></header><body><segment><metadata><OBJECT_NAME>ONEWEB-0328</OBJECT_NAME><OBJECT_ID>2021-083M</OBJECT_ID><CENTER_NAME>EARTH</CENTER_NAME><REF_FRAME>TEME</REF_FRAME><TIME_SYSTEM>UTC</TIME_SYSTEM><MEAN_ELEMENT_THEORY>SGP4</MEAN_ELEMENT_THEORY></metadata><data><meanElements><EPOCH>2025-10-24T18:09:18.633888</EPOCH><MEAN_MOTION>13.13468010</MEAN_MOTION><ECCENTRICITY>.00019134</ECCENTRICITY><INCLINATION>87.9042</INCLINATION><RA_OF_ASC_NODE>6.9879</RA_OF_ASC_NODE><ARG_OF_PERICENTER>96.5786</ARG_OF_PERICENTER><MEAN_ANOMALY>263.5561</MEAN_ANOMALY></meanElements><tleParameters><EPHEMERIS_TYPE>0</EPHEMERIS_TYPE><CLASSIFICATION_TYPE>U</CLASSIFICATION_TYPE><NORAD_CAT_ID>49197</NORAD_CAT_ID><ELEMENT_SET_NO>999</ELEMENT_SET_NO><REV_AT_EPOCH>19999</REV_AT_EPOCH><BSTAR>-.72850815E-3</BSTAR><MEAN_MOTION_DOT>-.253E-5</MEAN_MOTION_DOT><MEAN_MOTION_DDOT>0</MEAN_MOTION_DDOT></tleParameters></data></segment></body></omm>

</ndm>
